{"type": "FeatureCollection", "features": [ {"type": "Feature", "properties": {"norad_id": 34911, "name": "COSMOS 2251 DEB", "group": "cosmos-2251-debris", "lat": -39.25436245664682, "lon": 55.30520476650574, "alt_km": 733.4514251924193, "timestamp": "2025-12-24T18:55:56.467349+00:00", "meta": {"OBJECT_NAME": "COSMOS 2251 DEB", "OBJECT_ID": "1993-036ADG", "EPOCH": "2025-12-24T02:09:31.972032", "MEAN_MOTION": 14.59387905, "ECCENTRICITY": 0.00841327, "INCLINATION": 74.04, "RA_OF_ASC_NODE": 223.1127, "ARG_OF_PERICENTER": 345.7006, "MEAN_ANOMALY": 165.8347, "EPHEMERIS_TYPE": 0, "CLASSIFICATION_TYPE": "U", "NORAD_CAT_ID": 34911, "ELEMENT_SET_NO": 999, "REV_AT_EPOCH": 88752, "BSTAR": 0.0001069938, "MEAN_MOTION_DOT": 4.99e-06, "MEAN_MOTION_DDOT": 0}, "tle": {"line1": "1 34911U 93036ADG 25358.08995338  .00000499  00000+0  10699-3 0  9996", "line2": "2 34911  74.0400 223.1127 0084132 345.7006 165.8347 14.59387905887521"}}, "geometry": {"type": "Point", "coordinates": [55.30520476650574, -39.25436245664682]}}, {"type": "Feature", "properties": {"norad_id": 34913, "name": "COSMOS 2251 DEB", "group": "cosmos-2251-debris", "lat": -49.76675197685311, "lon": 100.20381839792533, "alt_km": 793.2230256895682, "timestamp": "2025-12-24T18:55:56.467359+00:00", "meta": {"OBJECT_NAME": "COSMOS 2251 DEB", "OBJECT_ID": "1993-036ADJ", "EPOCH": "2025-12-23T10:36:37.078848", "MEAN_MOTION": 14.34640565, "ECCENTRICITY": 0.00207883, "INCLINATION": 74.0284, "RA_OF_ASC_NODE": 262.8852, "ARG_OF_PERICENTER": 9.9036, "MEAN_ANOMALY": 109.9742, "EPHEMERIS_TYPE": 0, "CLASSIFICATION_TYPE": "U", "NORAD_CAT_ID": 34913, "ELEMENT_SET_NO": 999, "REV_AT_EPOCH": 65341, "BSTAR": 5.2055056e-05, "MEAN_MOTION_DOT": 1.21e-06, "MEAN_MOTION_DDOT": 0}, "tle": {"line1": "1 34913U 93036ADJ 25357.44209582  .00000121  00000+0  52055-4 0  9991", "line2": "2 34913  74.0284 262.8852 0020788   9.9036 109.9742 14.34640565653411"}}, "geometry": {"type": "Point", "coordinates": [100.20381839792533, -49.76675197685311]}}, {"type": "Feature", "properties": {"norad_id": 34918, "name": "COSMOS 2251 DEB", "group": "cosmos-2251-debris", "lat": 73.53832110097044, "lon": 35.51146407745403, "alt_km": 703.3660478212605, "timestamp": "2025-12-24T18:55:56.467369+00:00", "meta": {"OBJECT_NAME": "COSMOS 2251 DEB", "OBJECT_ID": "1993-036ADP", "EPOCH": "2025-12-24T02:08:41.542080", "MEAN_MOTION": 14.61378156, "ECCENTRICITY": 0.00328762, "INCLINATION": 74.0715, "RA_OF_ASC_NODE": 291.971, "ARG_OF_PERICENTER": 257.5007, "MEAN_ANOMALY": 118.3571, "EPHEMERIS_TYPE": 0, "CLASSIFICATION_TYPE": "U", "NORAD_CAT_ID": 34918, "ELEMENT_SET_NO": 999, "REV_AT_EPOCH": 65502, "BSTAR": 0.0016613366, "MEAN_MOTION_DOT": 8.26e-05, "MEAN_MOTION_DDOT": 0}, "tle": {"line1": "1 34918U 93036ADP 25358.08936970  .00008260  00000+0  16613-2 0  9995", "line2": "2 34918  74.0715 291.9710 0032876 257.5007 118.3571 14.61378156655028"}}, "geometry": {"type": "Point", "coordinates": [35.51146407745403, 73.53832110097044]}}, {"type": "Feature", "properties": {"norad_id": 34924, "name": "COSMOS 2251 DEB", "group": "cosmos-2251-debris", "lat": 35.46709921743641, "lon": 78.22277042251743, "alt_km": 703.2681676719949, "timestamp": "2025-12-24T18:55:56.467379+00:00", "meta": {"OBJECT_NAME": "COSMOS 2251 DEB", "OBJECT_ID": "1993-036ADV", "EPOCH": "2025-12-23T21:54:48.053952", "MEAN_MOTION": 14.60122119, "ECCENTRICITY": 0.0053434, "INCLINATION": 74.0406, "RA_OF_ASC_NODE": 68.1296, "ARG_OF_PERICENTER": 149.9292, "MEAN_ANOMALY": 326.1896, "EPHEMERIS_TYPE": 0, "CLASSIFICATION_TYPE": "U", "NORAD_CAT_ID": 34924, "ELEMENT_SET_NO": 999, "REV_AT_EPOCH": 87886, "BSTAR": 0.00083112, "MEAN_MOTION_DOT": 4.052e-05, "MEAN_MOTION_DDOT": 0}, "tle": {"line1": "1 34924U 93036ADV 25357.91305618  .00004052  00000+0  83112-3 0  9996", "line2": "2 34924  74.0406  68.1296 0053434 149.9292 326.1896 14.60122119878861"}}, "geometry": {"type": "Point", "coordinates": [78.22277042251743, 35.46709921743641]}}, {"type": "Feature", "properties": {"norad_id": 34944, "name": "COSMOS 2251 DEB", "group": "cosmos-2251-debris", "lat": -44.93570797717886, "lon": -166.61994666972703, "alt_km": 883.9461285938096, "timestamp": "2025-12-24T18:55:56.467390+00:00", "meta": {"OBJECT_NAME": "COSMOS 2251 DEB", "OBJECT_ID": "1993-036ADX", "EPOCH": "2025-12-24T00:28:45.299136", "MEAN_MOTION": 14.14205718, "ECCENTRICITY": 0.02202834, "INCLINATION": 73.747, "RA_OF_ASC_NODE": 211.6884, "ARG_OF_PERICENTER": 57.2744, "MEAN_ANOMALY": 304.942, "EPHEMERIS_TYPE": 0, "CLASSIFICATION_TYPE": "U", "NORAD_CAT_ID": 34944, "ELEMENT_SET_NO": 999, "REV_AT_EPOCH": 64242, "BSTAR": 0.00030475781, "MEAN_MOTION_DOT": 7.07e-06, "MEAN_MOTION_DDOT": 0}, "tle": {"line1": "1 34944U 93036ADX 25358.01996874  .00000707  00000+0  30476-3 0  9998", "line2": "2 34944  73.7470 211.6884 0220283  57.2744 304.9420 14.14205718642423"}}, "geometry": {"type": "Point", "coordinates": [-166.61994666972703, -44.93570797717886]}}, {"type": "Feature", "properties": {"norad_id": 34946, "name": "COSMOS 2251 DEB", "group": "cosmos-2251-debris", "lat": -32.493928121625274, "lon": -51.48372766282907, "alt_km": 712.5843561586807, "timestamp": "2025-12-24T18:55:56.467400+00:00", "meta": {"OBJECT_NAME": "COSMOS 2251 DEB", "OBJECT_ID": "1993-036ADZ", "EPOCH": "2025-12-22T14:32:14.157024", "MEAN_MOTION": 14.62044182, "ECCENTRICITY": 0.00485038, "INCLINATION": 74.0239, "RA_OF_ASC_NODE": 323.2107, "ARG_OF_PERICENTER": 97.3579, "MEAN_ANOMALY": 263.3103, "EPHEMERIS_TYPE": 0, "CLASSIFICATION_TYPE": "U", "NORAD_CAT_ID": 34946, "ELEMENT_SET_NO": 999, "REV_AT_EPOCH": 88353, "BSTAR": 0.00053383233, "MEAN_MOTION_DOT": 2.695e-05, "MEAN_MOTION_DDOT": 0}, "tle": {"line1": "1 34946U 93036ADZ 25356.60571941  .00002695  00000+0  53383-3 0  9997", "line2": "2 34946  74.0239 323.2107 0048503  97.3579 263.3103 14.62044182883538"}}, "geometry": {"type": "Point", "coordinates": [-51.48372766282907, -32.493928121625274]}}, {"type": "Feature", "properties": {"norad_id": 34949, "name": "COSMOS 2251 DEB", "group": "cosmos-2251-debris", "lat": 24.17273103904477, "lon": 93.50987064936139, "alt_km": 698.6459251881288, "timestamp": "2025-12-24T18:55:56.467410+00:00", "meta": {"OBJECT_NAME": "COSMOS 2251 DEB", "OBJECT_ID": "1993-036AEC", "EPOCH": "2025-12-23T15:07:36.737184", "MEAN_MOTION": 14.74070674, "ECCENTRICITY": 0.00800682, "INCLINATION": 74.0188, "RA_OF_ASC_NODE": 88.3818, "ARG_OF_PERICENTER": 231.4252, "MEAN_ANOMALY": 127.973, "EPHEMERIS_TYPE": 0, "CLASSIFICATION_TYPE": "U", "NORAD_CAT_ID": 34949, "ELEMENT_SET_NO": 999, "REV_AT_EPOCH": 88522, "BSTAR": 0.00052093232, "MEAN_MOTION_DOT": 3.576e-05, "MEAN_MOTION_DDOT": 0}, "tle": {"line1": "1 34949U 93036AEC 25357.63028631  .00003576  00000+0  52093-3 0  9993", "line2": "2 34949  74.0188  88.3818 0080068 231.4252 127.9730 14.74070674885220"}}, "geometry": {"type": "Point", "coordinates": [93.50987064936139, 24.17273103904477]}}, {"type": "Feature", "properties": {"norad_id": 34953, "name": "COSMOS 2251 DEB", "group": "cosmos-2251-debris", "lat": 35.83169340084746, "lon": 172.36014406570993, "alt_km": 696.8857532080019, "timestamp": "2025-12-24T18:55:56.467420+00:00", "meta": {"OBJECT_NAME": "COSMOS 2251 DEB", "OBJECT_ID": "1993-036AEG", "EPOCH": "2025-12-24T00:26:53.254752", "MEAN_MOTION": 14.69053513, "ECCENTRICITY": 0.00587662, "INCLINATION": 74.0928, "RA_OF_ASC_NODE": 5.7288, "ARG_OF_PERICENTER": 354.5641, "MEAN_ANOMALY": 36.0442, "EPHEMERIS_TYPE": 0, "CLASSIFICATION_TYPE": "U", "NORAD_CAT_ID": 34953, "ELEMENT_SET_NO": 999, "REV_AT_EPOCH": 88294, "BSTAR": 0.00088757039, "MEAN_MOTION_DOT": 5.32e-05, "MEAN_MOTION_DDOT": 0}, "tle": {"line1": "1 34953U 93036AEG 25358.01867193  .00005320  00000+0  88757-3 0  9990", "line2": "2 34953  74.0928   5.7288 0058766 354.5641  36.0442 14.69053513882943"}}, "geometry": {"type": "Point", "coordinates": [172.36014406570993, 35.83169340084746]}}, {"type": "Feature", "properties": {"norad_id": 34955, "name": "COSMOS 2251 DEB", "group": "cosmos-2251-debris", "lat": -24.459236956713276, "lon": 49.47629664509804, "alt_km": 563.1104511235635, "timestamp": "2025-12-24T18:55:56.467431+00:00", "meta": {"OBJECT_NAME": "COSMOS 2251 DEB", "OBJECT_ID": "1993-036AEJ", "EPOCH": "2025-12-20T00:24:58.893120", "MEAN_MOTION": 15.00658938, "ECCENTRICITY": 0.00779123, "INCLINATION": 74.0366, "RA_OF_ASC_NODE": 231.6989, "ARG_OF_PERICENTER": 299.5962, "MEAN_ANOMALY": 59.7477, "EPHEMERIS_TYPE": 0, "CLASSIFICATION_TYPE": "U", "NORAD_CAT_ID": 34955, "ELEMENT_SET_NO": 999, "REV_AT_EPOCH": 90143, "BSTAR": 0.00046776562, "MEAN_MOTION_DOT": 6.274e-05, "MEAN_MOTION_DDOT": 0}, "tle": {"line1": "1 34955U 93036AEJ 25354.01734830  .00006274  00000+0  46777-3 0  9994", "line2": "2 34955  74.0366 231.6989 0077912 299.5962  59.7477 15.00658938901431"}}, "geometry": {"type": "Point", "coordinates": [49.47629664509804, -24.459236956713276]}}, {"type": "Feature", "properties": {"norad_id": 34962, "name": "COSMOS 2251 DEB", "group": "cosmos-2251-debris", "lat": 8.008351964262728, "lon": -11.452203777759584, "alt_km": 743.2436782062123, "timestamp": "2025-12-24T18:55:56.467441+00:00", "meta": {"OBJECT_NAME": "COSMOS 2251 DEB", "OBJECT_ID": "1993-036AER", "EPOCH": "2025-12-22T13:01:35.530176", "MEAN_MOTION": 14.46544161, "ECCENTRICITY": 0.00189039, "INCLINATION": 74.0281, "RA_OF_ASC_NODE": 175.0517, "ARG_OF_PERICENTER": 287.2321, "MEAN_ANOMALY": 72.6768, "EPHEMERIS_TYPE": 0, "CLASSIFICATION_TYPE": "U", "NORAD_CAT_ID": 34962, "ELEMENT_SET_NO": 999, "REV_AT_EPOCH": 87720, "BSTAR": 0.00036229259, "MEAN_MOTION_DOT": 1.281e-05, "MEAN_MOTION_DDOT": 0}, "tle": {"line1": "1 34962U 93036AER 25356.54277234  .00001281  00000+0  36229-3 0  9996", "line2": "2 34962  74.0281 175.0517 0018903 287.2321  72.6768 14.46544161877206"}}, "geometry": {"type": "Point", "coordinates": [-11.452203777759584, 8.008351964262728]}}]}